ONEWEB-0229             
1 48779U 21045N   25295.91500336 -.00000075  00000+0 -23457-3 0  9994
2 48779  87.8962 306.5384 0001744  96.4310 263.7019 13.15549004213214
ONEWEB-0228             
1 48780U 21045P   25295.94842148  .00000218  00000+0  54441-3 0  9993
2 48780  87.8974 306.5107 0001850  96.3592 263.7749 13.15549416213139
ONEWEB-0232             
1 48781U 21045Q   25295.92292949 -.00000010  00000+0 -59801-4 0  9998
2 48781  87.8973 306.5064 0001837  93.7749 266.3591 13.15549659213459
ONEWEB-0231             
1 48782U 21045R   25295.97680771  .00000014  00000+0  38809-5 0  9996
2 48782  87.8961 306.5451 0001819 102.6930 257.4404 13.15549235213150
ONEWEB-0234             
1 48783U 21045S   25295.86258019  .00000175  00000+0  43177-3 0  9991
2 48783  87.8966 306.5393 0002590  80.6849 279.4574 13.15549009213276
ONEWEB-0238             
1 48784U 21045T   25295.86284206  .00000165  00000+0  40460-3 0  9990
2 48784  87.8963 306.5339 0002115  87.1724 272.9648 13.15546598213170
ONEWEB-0240             
1 48785U 21045U   25295.88410899  .00000059  00000+0  12246-3 0  9995
2 48785  87.8972 306.5172 0002166  98.5781 261.5595 13.15546924213203
ONEWEB-0246             
1 48786U 21045V   25295.95462349  .00000189  00000+0  46820-3 0  9990
2 48786  87.8973 306.5164 0001728  97.2746 262.8580 13.15548499213089
